[
  {
    "OBJECT_NAME": "STARLINK-5613",
    "OBJECT_ID": "23028M",
    "EPOCH": "2025-11-11T01:23:27.350016",
    "MEAN_MOTION": 14.98336573,
    "ECCENTRICITY": 0.0003013,
    "INCLINATION": 69.999,
    "RA_OF_ASC_NODE": 183.4333,
    "ARG_OF_PERICENTER": 270.7111,
    "MEAN_ANOMALY": 89.3703,
    "EPHEMERIS_TYPE": 0,
    "CLASSIFICATION_TYPE": "U",
    "NORAD_CAT_ID": 55752,
    "ELEMENT_SET_NO": 999,
    "REV_AT_EPOCH": 14827,
    "BSTAR": 3.8787e-05,
    "MEAN_MOTION_DOT": 3.7e-06,
    "MEAN_MOTION_DDOT": 0.0,
    "TLE_LINE1": "1 55752U 23028M   25315.05795544  .00000370  00000+0  38787-4 0  9990",
    "TLE_LINE2": "2 55752  69.9990 183.4333 0003013 270.7111  89.3703 14.98336573148270",
    "COMMENT": "Grouped by shell and plane from TLE"
  },
  {
    "OBJECT_NAME": "STARLINK-5617",
    "OBJECT_ID": "23028N",
    "EPOCH": "2025-11-11T01:47:44.425536",
    "MEAN_MOTION": 14.98329925,
    "ECCENTRICITY": 0.0003026,
    "INCLINATION": 69.9991,
    "RA_OF_ASC_NODE": 183.4926,
    "ARG_OF_PERICENTER": 266.9845,
    "MEAN_ANOMALY": 93.0968,
    "EPHEMERIS_TYPE": 0,
    "CLASSIFICATION_TYPE": "U",
    "NORAD_CAT_ID": 55753,
    "ELEMENT_SET_NO": 999,
    "REV_AT_EPOCH": 14827,
    "BSTAR": 0.0,
    "MEAN_MOTION_DOT": -1.34e-06,
    "MEAN_MOTION_DDOT": 0.0,
    "TLE_LINE1": "1 55753U 23028N   25315.07481974 -.00000134  00000+0 -34045-5 0  9996",
    "TLE_LINE2": "2 55753  69.9991 183.4926 0003026 266.9845  93.0968 14.98329925148273",
    "COMMENT": "Grouped by shell and plane from TLE"
  },
  {
    "OBJECT_NAME": "STARLINK-5612",
    "OBJECT_ID": "23028P",
    "EPOCH": "2025-11-11T01:35:28.487616",
    "MEAN_MOTION": 14.98337424,
    "ECCENTRICITY": 0.0002871,
    "INCLINATION": 69.9989,
    "RA_OF_ASC_NODE": 183.4616,
    "ARG_OF_PERICENTER": 272.4488,
    "MEAN_ANOMALY": 87.6343,
    "EPHEMERIS_TYPE": 0,
    "CLASSIFICATION_TYPE": "U",
    "NORAD_CAT_ID": 55754,
    "ELEMENT_SET_NO": 999,
    "REV_AT_EPOCH": 14827,
    "BSTAR": 0.00011595,
    "MEAN_MOTION_DOT": 1.291e-05,
    "MEAN_MOTION_DDOT": 0.0,
    "TLE_LINE1": "1 55754U 23028P   25315.06630194  .00001291  00000+0  11595-3 0  9992",
    "TLE_LINE2": "2 55754  69.9989 183.4616 0002871 272.4488  87.6343 14.98337424148278",
    "COMMENT": "Grouped by shell and plane from TLE"
  },
  {
    "OBJECT_NAME": "STARLINK-5619",
    "OBJECT_ID": "23028Q",
    "EPOCH": "2025-11-11T01:17:40.740000",
    "MEAN_MOTION": 14.98333628,
    "ECCENTRICITY": 0.0002987,
    "INCLINATION": 69.999,
    "RA_OF_ASC_NODE": 183.4116,
    "ARG_OF_PERICENTER": 270.6874,
    "MEAN_ANOMALY": 89.3943,
    "EPHEMERIS_TYPE": 0,
    "CLASSIFICATION_TYPE": "U",
    "NORAD_CAT_ID": 55755,
    "ELEMENT_SET_NO": 999,
    "REV_AT_EPOCH": 14827,
    "BSTAR": 9.3447e-05,
    "MEAN_MOTION_DOT": 1.022e-05,
    "MEAN_MOTION_DDOT": 0.0,
    "TLE_LINE1": "1 55755U 23028Q   25315.05394375  .00001022  00000+0  93447-4 0  9999",
    "TLE_LINE2": "2 55755  69.9990 183.4116 0002987 270.6874  89.3943 14.98333628148270",
    "COMMENT": "Grouped by shell and plane from TLE"
  },
  {
    "OBJECT_NAME": "STARLINK-5614",
    "OBJECT_ID": "23028R",
    "EPOCH": "2025-11-11T01:11:26.101824",
    "MEAN_MOTION": 14.98331607,
    "ECCENTRICITY": 0.0002909,
    "INCLINATION": 69.9984,
    "RA_OF_ASC_NODE": 183.4021,
    "ARG_OF_PERICENTER": 271.1608,
    "MEAN_ANOMALY": 88.9217,
    "EPHEMERIS_TYPE": 0,
    "CLASSIFICATION_TYPE": "U",
    "NORAD_CAT_ID": 55756,
    "ELEMENT_SET_NO": 999,
    "REV_AT_EPOCH": 14827,
    "BSTAR": 0.0,
    "MEAN_MOTION_DOT": -7.34e-06,
    "MEAN_MOTION_DDOT": 0.0,
    "TLE_LINE1": "1 55756U 23028R   25315.04960766 -.00000734  00000+0 -53752-4 0  9998",
    "TLE_LINE2": "2 55756  69.9984 183.4021 0002909 271.1608  88.9217 14.98331607148278",
    "COMMENT": "Grouped by shell and plane from TLE"
  },
  {
    "OBJECT_NAME": "STARLINK-5544",
    "OBJECT_ID": "23028S",
    "EPOCH": "2025-11-11T01:41:29.403744",
    "MEAN_MOTION": 14.98338994,
    "ECCENTRICITY": 0.0002502,
    "INCLINATION": 69.9987,
    "RA_OF_ASC_NODE": 183.4758,
    "ARG_OF_PERICENTER": 265.593,
    "MEAN_ANOMALY": 94.4943,
    "EPHEMERIS_TYPE": 0,
    "CLASSIFICATION_TYPE": "U",
    "NORAD_CAT_ID": 55757,
    "ELEMENT_SET_NO": 999,
    "REV_AT_EPOCH": 14827,
    "BSTAR": 0.0,
    "MEAN_MOTION_DOT": -2.28e-06,
    "MEAN_MOTION_DDOT": 0.0,
    "TLE_LINE1": "1 55757U 23028S   25315.07047921 -.00000228  00000+0 -11350-4 0  9997",
    "TLE_LINE2": "2 55757  69.9987 183.4758 0002502 265.5930  94.4943 14.98338994148277",
    "COMMENT": "Grouped by shell and plane from TLE"
  },
  {
    "OBJECT_NAME": "STARLINK-5072",
    "OBJECT_ID": "23028T",
    "EPOCH": "2025-11-11T01:29:28.051008",
    "MEAN_MOTION": 14.98334949,
    "ECCENTRICITY": 0.0002893,
    "INCLINATION": 69.9988,
    "RA_OF_ASC_NODE": 183.4468,
    "ARG_OF_PERICENTER": 270.6708,
    "MEAN_ANOMALY": 89.4119,
    "EPHEMERIS_TYPE": 0,
    "CLASSIFICATION_TYPE": "U",
    "NORAD_CAT_ID": 55758,
    "ELEMENT_SET_NO": 999,
    "REV_AT_EPOCH": 14827,
    "BSTAR": 5.4106e-05,
    "MEAN_MOTION_DOT": 5.53e-06,
    "MEAN_MOTION_DDOT": 0.0,
    "TLE_LINE1": "1 55758U 23028T   25315.06213022  .00000553  00000+0  54106-4 0  9999",
    "TLE_LINE2": "2 55758  69.9988 183.4468 0002893 270.6708  89.4119 14.98334949148275",
    "COMMENT": "Grouped by shell and plane from TLE"
  },
  {
    "OBJECT_NAME": "STARLINK-5532",
    "OBJECT_ID": "23028V",
    "EPOCH": "2025-11-11T01:05:26.662272",
    "MEAN_MOTION": 14.9830641,
    "ECCENTRICITY": 0.000159,
    "INCLINATION": 70.0008,
    "RA_OF_ASC_NODE": 183.3879,
    "ARG_OF_PERICENTER": 271.3241,
    "MEAN_ANOMALY": 88.7736,
    "EPHEMERIS_TYPE": 0,
    "CLASSIFICATION_TYPE": "U",
    "NORAD_CAT_ID": 55760,
    "ELEMENT_SET_NO": 999,
    "REV_AT_EPOCH": 14827,
    "BSTAR": 0.00010076,
    "MEAN_MOTION_DOT": 1.109e-05,
    "MEAN_MOTION_DDOT": 0.0,
    "TLE_LINE1": "1 55760U 23028V   25315.04544748  .00001109  00000+0  10076-3 0  9997",
    "TLE_LINE2": "2 55760  70.0008 183.3879 0001590 271.3241  88.7736 14.98306410148271",
    "COMMENT": "Grouped by shell and plane from TLE"
  },
  {
    "OBJECT_NAME": "STARLINK-5593",
    "OBJECT_ID": "23028Y",
    "EPOCH": "2025-11-11T01:17:25.458432",
    "MEAN_MOTION": 14.98348644,
    "ECCENTRICITY": 0.0002197,
    "INCLINATION": 69.9992,
    "RA_OF_ASC_NODE": 183.419,
    "ARG_OF_PERICENTER": 277.3738,
    "MEAN_ANOMALY": 82.7172,
    "EPHEMERIS_TYPE": 0,
    "CLASSIFICATION_TYPE": "U",
    "NORAD_CAT_ID": 55763,
    "ELEMENT_SET_NO": 999,
    "REV_AT_EPOCH": 14827,
    "BSTAR": 0.00018983,
    "MEAN_MOTION_DOT": 2.174e-05,
    "MEAN_MOTION_DDOT": 0.0,
    "TLE_LINE1": "1 55763U 23028Y   25315.05376688  .00002174  00000+0  18983-3 0  9995",
    "TLE_LINE2": "2 55763  69.9992 183.4190 0002197 277.3738  82.7172 14.98348644148274",
    "COMMENT": "Grouped by shell and plane from TLE"
  },
  {
    "OBJECT_NAME": "STARLINK-30068",
    "OBJECT_ID": "23067L",
    "EPOCH": "2025-11-11T01:03:00.251424",
    "MEAN_MOTION": 15.02528865,
    "ECCENTRICITY": 0.0001493,
    "INCLINATION": 43.0044,
    "RA_OF_ASC_NODE": 186.0657,
    "ARG_OF_PERICENTER": 263.3772,
    "MEAN_ANOMALY": 96.69,
    "EPHEMERIS_TYPE": 0,
    "CLASSIFICATION_TYPE": "U",
    "NORAD_CAT_ID": 56698,
    "ELEMENT_SET_NO": 999,
    "REV_AT_EPOCH": 13770,
    "BSTAR": 0.0,
    "MEAN_MOTION_DOT": -3.151e-05,
    "MEAN_MOTION_DDOT": 0.0,
    "TLE_LINE1": "1 56698U 23067L   25315.04375291 -.00003151  00000+0 -21834-3 0  9991",
    "TLE_LINE2": "2 56698  43.0044 186.0657 0001493 263.3772  96.6900 15.02528865137701",
    "COMMENT": "Grouped by shell and plane from TLE"
  },
  {
    "OBJECT_NAME": "STARLINK-30080",
    "OBJECT_ID": "23067T",
    "EPOCH": "2025-11-11T00:58:13.012896",
    "MEAN_MOTION": 15.02539634,
    "ECCENTRICITY": 0.0001369,
    "INCLINATION": 43.0034,
    "RA_OF_ASC_NODE": 186.1102,
    "ARG_OF_PERICENTER": 262.3235,
    "MEAN_ANOMALY": 97.7452,
    "EPHEMERIS_TYPE": 0,
    "CLASSIFICATION_TYPE": "U",
    "NORAD_CAT_ID": 56705,
    "ELEMENT_SET_NO": 999,
    "REV_AT_EPOCH": 13796,
    "BSTAR": 0.00041584,
    "MEAN_MOTION_DOT": 5.419e-05,
    "MEAN_MOTION_DDOT": 0.0,
    "TLE_LINE1": "1 56705U 23067T   25315.04042839  .00005419  00000+0  41584-3 0  9990",
    "TLE_LINE2": "2 56705  43.0034 186.1102 0001369 262.3235  97.7452 15.02539634137968",
    "COMMENT": "Grouped by shell and plane from TLE"
  },
  {
    "OBJECT_NAME": "STARLINK-6100",
    "OBJECT_ID": "23090AA",
    "EPOCH": "2025-11-11T01:19:04.136736",
    "MEAN_MOTION": 15.02539262,
    "ECCENTRICITY": 0.0001266,
    "INCLINATION": 43.0022,
    "RA_OF_ASC_NODE": 186.5994,
    "ARG_OF_PERICENTER": 274.0387,
    "MEAN_ANOMALY": 86.0311,
    "EPHEMERIS_TYPE": 0,
    "CLASSIFICATION_TYPE": "U",
    "NORAD_CAT_ID": 57125,
    "ELEMENT_SET_NO": 999,
    "REV_AT_EPOCH": 13252,
    "BSTAR": 6.1791e-05,
    "MEAN_MOTION_DOT": 6.31e-06,
    "MEAN_MOTION_DDOT": 0.0,
    "TLE_LINE1": "1 57125U 23090AA  25315.05490899  .00000631  00000+0  61791-4 0  9991",
    "TLE_LINE2": "2 57125  43.0022 186.5994 0001266 274.0387  86.0311 15.02539262132528",
    "COMMENT": "Grouped by shell and plane from TLE"
  },
  {
    "OBJECT_NAME": "STARLINK-6170",
    "OBJECT_ID": "23090AE",
    "EPOCH": "2025-11-11T00:04:07.154976",
    "MEAN_MOTION": 15.02539103,
    "ECCENTRICITY": 0.0001344,
    "INCLINATION": 43.0044,
    "RA_OF_ASC_NODE": 187.0729,
    "ARG_OF_PERICENTER": 265.6515,
    "MEAN_ANOMALY": 94.4174,
    "EPHEMERIS_TYPE": 0,
    "CLASSIFICATION_TYPE": "U",
    "NORAD_CAT_ID": 57129,
    "ELEMENT_SET_NO": 999,
    "REV_AT_EPOCH": 13251,
    "BSTAR": 3.0037000000000004e-05,
    "MEAN_MOTION_DOT": 2.02e-06,
    "MEAN_MOTION_DDOT": 0.0,
    "TLE_LINE1": "1 57129U 23090AE  25315.00286059  .00000202  00000+0  30037-4 0  9994",
    "TLE_LINE2": "2 57129  43.0044 187.0729 0001344 265.6515  94.4174 15.02539103132517",
    "COMMENT": "Grouped by shell and plane from TLE"
  }
]